{"epoch":1784902576,"count":18312,"objects":[{"id":"7530","name":"OSCAR 7","type":"PAYLOAD","l1":"1 07530U 74089B   26205.00843170 -.00000035  00000-0  69797-4 0  9992","l2":"2 07530 101.9909 218.6390 0012605  62.0534 354.4011 12.53698666365137"},{"id":"14129","name":"OSCAR 10","type":"PAYLOAD","l1":"1 14129U 83058B   26203.81462469  .00000116  00000-0  00000+0 0  9991","l2":"2 14129  25.9436 213.6999 5998947 125.4549 306.1498  2.05869117296229"},{"id":"14781","name":"OSCAR 11 (UOSAT 2)","type":"PAYLOAD","l1":"1 14781U 84021B   26205.13641424  .00001412  00000-0  14887-3 0  9995","l2":"2 14781  97.8084 170.3059 0009062  66.6187 293.5983 14.90867794262638"},{"id":"20442","name":"OSCAR 19 (LUSAT)","type":"PAYLOAD","l1":"1 20442U 90005G   26205.29878690  .00000109  00000-0  55712-4 0  9994","l2":"2 20442  98.8847 228.1256 0012691  97.0048 263.2580 14.34132806907713"},{"id":"22825","name":"EYESAT A","type":"PAYLOAD","l1":"1 22825U 93061C   26205.12930229  .00000076  00000-0  45821-4 0  9998","l2":"2 22825  98.6860 272.5257 0008237   0.1294 359.9889 14.30950860712281"},{"id":"22826","name":"ITAMSAT","type":"PAYLOAD","l1":"1 22826U 93061D   26205.16758887  .00000072  00000-0  44048-4 0  9997","l2":"2 22826  98.6807 272.4851 0008410 342.5866  17.5027 14.31378661712604"},{"id":"23439","name":"RADIO ROSTO","type":"PAYLOAD","l1":"1 23439U 94085A   26205.27670680 -.00000022  00000-0  56791-3 0  9994","l2":"2 23439  64.8137 243.2329 0157265 357.0412   2.9568 11.27583697300085"},{"id":"24278","name":"JAS 2","type":"PAYLOAD","l1":"1 24278U 96046B   26205.12952743 -.00000038  00000-0 -24870-5 0  9995","l2":"2 24278  98.5214  48.9375 0349915   0.7744 359.3870 13.53275832478163"},{"id":"25397","name":"TECHSAT 1B","type":"PAYLOAD","l1":"1 25397U 98043D   26204.45017931  .00000045  00000-0  39520-4 0  9996","l2":"2 25397  99.0092 198.1273 0002334 101.8892 258.2548 14.24434535456496"},{"id":"25544","name":"ISS (ZARYA)","type":"PAYLOAD","l1":"1 25544U 98067A   26205.15303990  .00012066  00000-0  22566-3 0  9994","l2":"2 25544  51.6315 117.1603 0006931 331.5533  28.5077 15.49135191577483"},{"id":"26931","name":"PCSAT","type":"PAYLOAD","l1":"1 26931U 01043C   26205.24706013  .00000129  00000-0  78991-4 0  9997","l2":"2 26931  67.0505 148.4176 0005831 267.3702  92.6733 14.31967929295750"},{"id":"27607","name":"SAUDISAT 1C","type":"PAYLOAD","l1":"1 27607U 02058C   26205.24220061  .00001104  00000-0  14711-3 0  9992","l2":"2 27607  64.5525  14.3305 0074248 255.6154 103.6703 14.83113955269951"},{"id":"27844","name":"CUTE-1","type":"PAYLOAD","l1":"1 27844U 03031E   26204.98734998  .00000257  00000-0  12998-3 0  9999","l2":"2 27844  98.6747 213.0848 0010841  80.0988 280.1415 14.24355720196911"},{"id":"27848","name":"CUBESAT XI 4","type":"PAYLOAD","l1":"1 27848U 03031J   26204.01036090  .00000205  00000-0  10894-3 0  9991","l2":"2 27848  98.6778 211.8037 0010713  99.0689 261.1702 14.23637690196478"},{"id":"27939","name":"MOZHAYETS 4","type":"PAYLOAD","l1":"1 27939U 03042A   26205.30103167  .00000952  00000-0  15453-3 0  9992","l2":"2 27939  98.3486  30.7115 0011926 145.3404 339.8529 14.73526140221015"},{"id":"28895","name":"CUBESAT XI 5","type":"PAYLOAD","l1":"1 28895U 05043F   26204.88864678  .00001259  00000-0  20524-3 0  9996","l2":"2 28895  98.3026   1.2912 0015342  89.9342 270.3623 14.72719548107152"},{"id":"32785","name":"CUTE-1.7+APD 2","type":"PAYLOAD","l1":"1 32785U 08021C   26205.23490152  .00006274  00000-0  39253-3 0  9991","l2":"2 32785  97.8297 187.4378 0006985 261.1167  98.9271 15.09764989990786"},{"id":"32791","name":"SEEDS","type":"PAYLOAD","l1":"1 32791U 08021J   26204.41936485  .00018972  00000-0  58050-3 0  9995","l2":"2 32791  97.7535 204.0815 0003921 140.5450 219.6077 15.33884906992845"},{"id":"32953","name":"YUBELEINY","type":"PAYLOAD","l1":"1 32953U 08025A   26205.27933962  .00000106  00000-0  68916-3 0  9993","l2":"2 32953  82.5066 332.3673 0018859 228.2309 131.7160 12.43181499824303"},{"id":"33499","name":"KKS-1 (KISEKI)","type":"PAYLOAD","l1":"1 33499U 09002H   26205.29446799  .00001314  00000-0  16770-3 0  9997","l2":"2 33499  98.1169 128.3241 0008159 159.6914 200.4625 14.83207070941693"},{"id":"35932","name":"SWISSCUBE","type":"PAYLOAD","l1":"1 35932U 09051B   26205.18165447  .00001000  00000-0  20667-3 0  9993","l2":"2 35932  98.3997 113.7095 0008129  95.3450 264.8679 14.62544482894565"},{"id":"35933","name":"BEESAT","type":"PAYLOAD","l1":"1 35933U 09051C   26205.27891895  .00000823  00000-0  17486-3 0  9994","l2":"2 35933  98.3926 113.3659 0006490 106.4520 253.7394 14.61773472894609"},{"id":"35935","name":"ITUPSAT 1","type":"PAYLOAD","l1":"1 35935U 09051E   26205.23383542  .00000763  00000-0  16739-3 0  9990","l2":"2 35935  98.4010 112.4722 0008553 118.2197 241.9868 14.60489489894145"},{"id":"36122","name":"XIWANG-1 (HOPE-1)","type":"PAYLOAD","l1":"1 36122U 09072B   26205.33144786 -.00000291  00000-0 -64573-3 0  9995","l2":"2 36122 100.4039 158.5734 0007776 144.4430 215.7202 13.16438769797890"},{"id":"37224","name":"O/OREOS (USA 219)","type":"PAYLOAD","l1":"1 37224U 10062C   26204.42499453  .00001789  00000-0  17393-3 0  9992","l2":"2 37224  71.9706 358.2425 0014555 349.2914  10.7944 14.93874898122057"},{"id":"37839","name":"JUGNU","type":"PAYLOAD","l1":"1 37839U 11058B   26205.01116903  .00000406  00000-0  72402-4 0  9990","l2":"2 37839  19.9609  84.7012 0018656 123.2537   7.4385 14.13785520764243"},{"id":"37841","name":"SRMSAT","type":"PAYLOAD","l1":"1 37841U 11058D   26205.32644723  .00000373  00000-0  58316-4 0  9994","l2":"2 37841  19.9702 194.6722 0011544 252.2420 137.2725 14.11582557763075"},{"id":"39090","name":"STRAND 1","type":"PAYLOAD","l1":"1 39090U 13009E   26204.95529915  .00000267  00000-0  10393-3 0  9997","l2":"2 39090  98.3941  24.2884 0009756 117.7529 242.4648 14.37182902702347"},{"id":"39417","name":"ZACUBE","type":"PAYLOAD","l1":"1 39417U 13066B   26205.13222479  .00003759  00000-0  29057-3 0  9995","l2":"2 39417  97.7988 167.6473 0044060 126.6584 233.8702 15.01368948686273"},{"id":"39430","name":"GOMX 1","type":"PAYLOAD","l1":"1 39430U 13066Q   26205.29508127  .00001196  00000-0  18579-3 0  9994","l2":"2 39430  97.6471  43.4167 0127425 318.8586  40.3066 14.69558452675365"}]}